ONEWEB-0427             
1 50499U 21132AG  24138.91649434  .00000112  00000+0  25156-3 0  9999
2 50499  87.9114 126.7976 0001926  80.4109 279.7240 13.18687199121410
ONEWEB-0429             
1 50500U 21132AH  24138.90383424  .00000035  00000+0  56804-4 0  9994
2 50500  87.9124 126.8045 0002150  93.1627 266.9752 13.18691775121385
ONEWEB-0430             
1 50501U 21132AJ  24138.89277167  .00000003  00000+0 -25221-4 0  9994
2 50501  87.9120 126.8125 0002524  87.8312 272.3109 13.18686572121428
ONEWEB-0432             
1 50502U 21132AK  24138.92439616  .00000095  00000+0  20845-3 0  9994
2 50502  87.9119 126.7993 0002414  79.1708 280.9696 13.18687179121385
ONEWEB-0440             
1 50503U 21132AL  24138.91175151  .00000061  00000+0  12166-3 0  9995
2 50503  87.9121 126.7892 0001730 103.4396 256.6929 13.18686704121372
ONEWEB-0450             
1 50504U 21132AM  24138.67792894  .00000102  00000+0  22701-3 0  9990
2 50504  87.9121 126.8643 0002307  94.4857 265.6539 13.18686072121375
ONEWEB-0410             
1 51622U 22012A   24138.79301244  .00000000  00000+0 -33163-4 0  9991
2 51622  87.9166 157.1965 0001296  40.9805 319.1424 13.17649302113569
ONEWEB-0411             
1 51623U 22012B   24138.87410165  .00000057  00000+0  12648-3 0  9999
2 51623  87.8970 187.3919 0002761  91.1290 269.0154 13.10376959109713
